STARLINK-37184
1 68393U 26063P   26106.93345139  .00099073  00000+0  51106-3 0  9991
2 68393  97.2840 248.6280 0001342  63.5712 296.5693 15.80861005  3664
STARLINK-37157
1 68394U 26063Q   26106.89291185  .00058688  00000+0  39143-3 0  9992
2 68394  97.2855 248.5292 0001077  87.9672 272.1717 15.75202688  3659
STARLINK-37172
1 68395U 26063R   26106.88479742  .00108487  00000+0  71818-3 0  9997
2 68395  97.2855 248.5402 0001371  69.6014 290.5398 15.75216452  3650
STARLINK-37190
1 68396U 26063S   26106.93195188  .00129871  00000+0  66738-3 0  9998
2 68396  97.2841 248.6288 0001343  79.7182 280.4238 15.80859601  3663
STARLINK-37194
1 68397U 26063T   26106.93044684  .00107532  00000+0  55443-3 0  9994
2 68397  97.2841 248.6313 0001291  84.7065 275.4351 15.80848198  3660
STARLINK-37220
1 68398U 26063U   26106.91668981 -.00044757  00000+0 -30051-3 0  9994
2 68398  97.2857 248.6073 0001510  76.3751 180.4784 15.75209386  4608
STARLINK-37187
1 68399U 26063V   26106.92969511  .00067793  00000+0  35178-3 0  9997
2 68399  97.2840 248.6323 0001379 102.2552 257.8871 15.80824732  3665
STARLINK-36235
1 68400U 26063W   26106.92819180  .00103180  00000+0  53220-3 0  9995
2 68400  97.2840 248.6340 0001493  61.5256 298.6163 15.80851158  3661
STARLINK-37175
1 68401U 26063X   26106.81738484  .00099401  00000+0  65864-3 0  9998
2 68401  97.2854 248.4790 0001020  79.2537 280.8843 15.75222899  3642
STARLINK-36360
1 68402U 26063Y   26106.92668925  .00106776  00000+0  55028-3 0  9998
2 68402  97.2840 248.6362 0001308  78.6677 281.4738 15.80859953  3667
STARLINK-37218
1 68403U 26063Z   26106.92518640  .00064452  00000+0  33425-3 0  9998
2 68403  97.2839 248.6393 0001646  55.9732 304.1692 15.80847544  3660
STARLINK-37188
1 68404U 26063AA  26106.92593633  .00066732  00000+0  34606-3 0  9999
2 68404  97.2840 248.6376 0001500  61.1218 299.0201 15.80841302  3665
SHIYAN-33
1 68405U 26064A   26106.91071380  .00003271  00000+0  14035-3 0  9993
2 68405  97.4645 182.7493 0014897 156.5870 203.6049 15.23344046  3161
LPNTSAT-001 (IOD-1)
1 68408U 26065A   26106.92150496  .00001686  00000+0  85177-4 0  9998
2 68408  97.4102 348.7100 0016052 212.9314 147.0921 15.18331374  2967
LPNTSAT-002 (IOD-2)
1 68409U 26065B   26106.92096067  .00003677  00000+0  18149-3 0  9998
2 68409  97.4092 348.7082 0013199 207.2279 152.8265 15.18443742  2947
XINZHENGCHENG-01
1 68412U 26066A   26106.91474786  .00000336  00000+0  32775-4 0  9991
2 68412  84.9626 266.7263 0027570 105.8231 254.6036 14.88352037  2617
2026-066C
1 68414U 26066C   26106.91329872  .00000715  00000+0  73204-4 0  9991
2 68414  84.9625 266.7249 0028165 106.6179 253.8141 14.88513928  2619
2026-066D
1 68415U 26066D   26106.91411676  .00001136  00000+0  11849-3 0  9990
2 68415  84.9625 266.7256 0027570 106.3694 254.0564 14.88430996  2611
TRANSPORTER-16 OBJECT A
1 68416U 26067A   26106.83110658  .00004832  00000+0  23633-3 0  9999
2 68416  97.4501  66.2346 0004009 109.4945 250.6723 15.18674017  2631
TRANSPORTER-16 OBJECT B
1 68417U 26067B   26106.83177059  .00004588  00000+0  22497-3 0  9993
2 68417  97.4522  66.2377 0003847 111.5846 248.5798 15.18610110  2634
TRANSPORTER-16 OBJECT C
1 68418U 26067C   26106.83255391  .00003242  00000+0  16041-3 0  9994
2 68418  97.4541  66.2410 0003736 123.4253 236.7339 15.18514440  2634
TRANSPORTER-16 OBJECT D
1 68419U 26067D   26106.83241427  .00001907  00000+0  95648-4 0  9997
2 68419  97.4498  66.2322 0003406 102.9838 257.1777 15.18525696  2631
TRANSPORTER-16 OBJECT E
1 68420U 26067E   26106.83217994  .00006429  00000+0  31378-3 0  9994
2 68420  97.4442  66.2220 0003669  93.3123 266.8531 15.18621293  2635
TRANSPORTER-16 OBJECT F
1 68421U 26067F   26106.83438414  .00002932  00000+0  14607-3 0  9998
2 68421  97.4472  66.2246 0002947  94.9467 265.2103 15.18343569  2638
TRANSPORTER-16 OBJECT G
1 68422U 26067G   26106.83475504  .00002822  00000+0  14084-3 0  9997
2 68422  97.4437  66.2166 0002915  91.4717 268.6851 15.18313195  2635
TRANSPORTER-16 OBJECT H
1 68423U 26067H   26106.83538221  .00003411  00000+0  16980-3 0  9996
2 68423  97.4460  66.2204 0002547 101.2252 258.9269 15.18265832  2639
TRANSPORTER-16 OBJECT J
1 68424U 26067J   26106.84139729  .00003916  00000+0  19729-3 0  9992
2 68424  97.4479  66.2160 0000347 171.7467 188.3772 15.17749817  2631
TRANSPORTER-16 OBJECT K
1 68425U 26067K   26106.83635307  .00003358  00000+0  16761-3 0  9998
2 68425  97.4544  66.2367 0002387 131.5727 228.5712 15.18182792  2638
TRANSPORTER-16 OBJECT L
1 68426U 26067L   26106.83490073  .00007434  00000+0  36453-3 0  9997
2 68426  97.4504  66.2306 0002469 135.7217 224.4215 15.18408062  2633
TRANSPORTER-16 OBJECT M
1 68427U 26067M   26106.83552978  .00006073  00000+0  29923-3 0  9993
2 68427  97.4505  66.2301 0002337 134.9783 225.1641 15.18316917  2631
TRANSPORTER-16 OBJECT N
1 68428U 26067N   26106.83786228  .00002762  00000+0  13900-3 0  9990
2 68428  97.4527  66.2317 0001811 143.7493 216.3864 15.18037757  2636
TRANSPORTER-16 OBJECT P
1 68429U 26067P   26106.83875081  .00007544  00000+0  37342-3 0  9996
2 68429  97.4472  66.2165 0001272 186.8969 173.2247 15.18073013  2635
TRANSPORTER-16 OBJECT Q
1 68430U 26067Q   26106.83627939  .00004688  00000+0  23232-3 0  9994
2 68430  97.4460  66.2193 0001988 105.6798 254.4655 15.18231862  2631
TRANSPORTER-16 OBJECT R
1 68431U 26067R   26106.83709926  .00005636  00000+0  27914-3 0  9997
2 68431  97.4559  66.2394 0002261 153.8356 206.2993 15.18165231  2630
TRANSPORTER-16 OBJECT S
1 68432U 26067S   26106.90546092  .00003866  00000+0  19391-3 0  9992
2 68432  97.4514  66.2928 0001306 179.6320 180.4915 15.17914986  2647
TRANSPORTER-16 OBJECT T
1 68433U 26067T   26106.85199270  .00003148  00000+0  16357-3 0  9991
2 68433  97.4530  66.2135 0003870 279.0068  81.0727 15.16810604  2635
TRANSPORTER-16 OBJECT U
1 68434U 26067U   26106.83637566  .00002799  00000+0  14030-3 0  9992
2 68434  97.4537  66.2355 0002368 134.5667 225.5760 15.18166632  2637
TRANSPORTER-16 OBJECT V
1 68435U 26067V   26106.84246491  .00002097  00000+0  10763-3 0  9997
2 68435  97.4506  66.2221 0000768 240.4927 119.6231 15.17617253  2639
TRANSPORTER-16 OBJECT W
1 68436U 26067W   26106.84362690  .00002573  00000+0  13245-3 0  9995
2 68436  97.4503  66.2199 0000691 234.5210 125.5959 15.17303223  2637
TRANSPORTER-16 OBJECT X
1 68437U 26067X   26106.11492131  .00002533  00000+0  12800-3 0  9992
2 68437  97.4461  65.4999 0000552 200.3525 159.7687 15.17975285  2524
TRANSPORTER-16 OBJECT Y
1 68438U 26067Y   26106.84015114  .00011033  00000+0  54502-3 0  9995
2 68438  97.4481  66.2183 0000965 231.5466 128.5682 15.18033631  2631
TRANSPORTER-16 OBJECT Z
1 68439U 26067Z   26106.84210624  .00009347  00000+0  46501-3 0  9994
2 68439  97.4477  66.2146 0000375 299.4013  60.7183 15.17829027  2636
TRANSPORTER-16 OBJECT AA
1 68440U 26067AA  26106.11640207  .00011045  00000+0  54745-3 0  9997
2 68440  97.4471  65.5013 0000288 316.9202  43.2010 15.17913743  2527
TRANSPORTER-16 OBJECT AB
1 68441U 26067AB  26106.44880538  .00002723  00000+0  13823-3 0  9992
2 68441  97.4473  65.8220 0001190 327.9460  32.1701 15.17746317  2574
TRANSPORTER-16 OBJECT AC
1 68442U 26067AC  26106.84858534  .00003646  00000+0  18726-3 0  9990
2 68442  97.4497  66.2111 0002543 292.2096  67.8867 15.17119617  2639
TRANSPORTER-16 OBJECT AD
1 68443U 26067AD  26106.84924239  .00003221  00000+0  16613-3 0  9999
2 68443  97.4506  66.2123 0002825 295.8832  64.2110 15.17052526  2631
TRANSPORTER-16 OBJECT AE
1 68444U 26067AE  26106.83679084  .00004014  00000+0  19984-3 0  9999
2 68444  97.4529  66.2335 0002068 138.3700 221.7691 15.18157928  2633
TRANSPORTER-16 OBJECT AF
1 68445U 26067AF  26106.85089005  .00002676  00000+0  13923-3 0  9999
2 68445  97.4477  66.2032 0003372 303.5676  56.5235 15.16896056  2635
TRANSPORTER-16 OBJECT AG
1 68446U 26067AG  26104.14754476  .00010917  00000+0  55598-3 0  9992
2 68446  97.4363  63.5285 0005085 311.4083  48.6713 15.16956596  2216
TRANSPORTER-16 OBJECT AH
1 68447U 26067AH  26106.83806268  .00004994  00000+0  24839-3 0  9990
2 68447  97.4481  66.2214 0001426 126.9959 233.1406 15.18070358  2637
TRANSPORTER-16 OBJECT AJ
1 68448U 26067AJ  26106.84502902  .00002214  00000+0  11291-3 0  9991
2 68448  97.4480  66.2114 0001527 315.6408  44.4703 15.17778116  2633
TRANSPORTER-16 OBJECT AK
1 68449U 26067AK  26106.84748917  .00004582  00000+0  23365-3 0  9995
2 68449  97.4472  66.2069 0002157 306.1128  53.9905 15.17240399  2634
TRANSPORTER-16 OBJECT AL
1 68450U 26067AL  26106.83927324  .00004973  00000+0  24814-3 0  9991
2 68450  97.4507  66.2262 0001174 154.7014 205.4277 15.17962847  2634
TRANSPORTER-16 OBJECT AM
1 68451U 26067AM  26106.83858910  .00005015  00000+0  24980-3 0  9998
2 68451  97.4466  66.2170 0001227 124.7623 235.3727 15.18023940  2634
TRANSPORTER-16 OBJECT AN
1 68452U 26067AN  26106.84687237  .00004539  00000+0  23112-3 0  9998
2 68452  97.4508  66.2164 0002013 291.4622  68.6397 15.17293480  2637
TRANSPORTER-16 OBJECT AP
1 68453U 26067AP  26106.33336806  .00056006  00000+0  27448-2 0  9997
2 68453  97.4505  65.7276 0001264 177.9264 298.2016 15.17926082  3855
TRANSPORTER-16 OBJECT AQ
1 68454U 26067AQ  26106.85014212  .00004141  00000+0  21291-3 0  9993
2 68454  97.4532  66.2175 0003340 282.4999  77.5861 15.17005049  2636
TRANSPORTER-16 OBJECT AR
1 68455U 26067AR  26106.85166079  .00003062  00000+0  15908-3 0  9992
2 68455  97.4534  66.2150 0003808 280.9804  79.1000 15.16837975  2632
TRANSPORTER-16 OBJECT AS
1 68456U 26067AS  26106.85153525  .00003592  00000+0  18587-3 0  9999
2 68456  97.4508  66.2095 0003761 281.9417  78.1395 15.16863578  2635
TRANSPORTER-16 OBJECT AT
1 68457U 26067AT  26106.63800762  .00006261  00000+0  30844-3 0  9994
2 68457  97.4503  66.0349 0002210 136.4663 223.6746 15.18309911  2608
TRANSPORTER-16 OBJECT AU
1 68458U 26067AU  26106.85184627  .00004912  00000+0  25286-3 0  9999
2 68458  97.4435  66.1942 0004021 296.3068  63.7752 15.16867909  2637
